KUIPER-00104            
1 65142U 25171L   25295.00003472 -.00976013  00000+0 -33913-1 0  9990
2 65142  51.8787  59.8999 0005166  14.9293 174.2052 15.31750323  5221
KUIPER-00105            
1 65143U 25171M   25295.00003472 -.00947699  00000+0 -58912-1 0  9995
2 65143  51.8835  61.9066 0010753 356.2178 204.4054 15.12002882  5471
KUIPER-00106            
1 65144U 25171N   25295.00003472 -.01357557  00000+0 -11896+0 0  9993
2 65144  51.8930  64.6487 0009464 356.3122 259.8815 14.99475237  4977
KUIPER-00107            
1 65145U 25171P   25294.61882916  .00059165  00000+0  15699-2 0  9997
2 65145  51.8761  61.4594 0005119  21.6917 338.4286 15.37723264 12188
KUIPER-00108            
1 65146U 25171Q   25295.00003472 -.01324134  00000+0 -54313-1 0  9993
2 65146  51.8825  60.2918 0006291  37.1009 304.6313 15.26783513  3810
KUIPER-00109            
1 65147U 25171R   25295.00003472 -.00762102  00000+0 -23569-1 0  9993
2 65147  51.8772  59.5261 0007635   9.4796 348.9084 15.35578014  5188
KUIPER-00110            
1 65148U 25171S   25295.00003472 -.01676224  00000+0 -12526+0 0  9993
2 65148  51.8879  63.1882 0009463   5.8409 270.0923 15.05597296  5399
KUIPER-00111            
1 65149U 25171T   25295.00003472 -.00057292  00000+0 -62201-2 0  9999
2 65149  51.8973  66.5538 0008275  25.2577 114.7212 14.87882558  5754
