<?xml version="1.0" encoding="UTF-8"?>
<ndm xmlns:xsi="http://www.w3.org/2001/XMLSchema-instance" xsi:noNamespaceSchemaLocation="https://sanaregistry.org/r/ndmxml_unqualified/ndmxml-2.0.0-master-2.0.xsd">
<omm id="CCSDS_OMM_VERS" version="2.0">
<header><CREATION_DATE/><ORIGINATOR/></header><body><segment><metadata><OBJECT_NAME>KUIPER-00104</OBJECT_NAME><OBJECT_ID>2025-171L</OBJECT_ID><CENTER_NAME>EARTH</CENTER_NAME><REF_FRAME>TEME</REF_FRAME><TIME_SYSTEM>UTC</TIME_SYSTEM><MEAN_ELEMENT_THEORY>SGP4</MEAN_ELEMENT_THEORY></metadata><data><meanElements><EPOCH>2025-10-22T00:00:02.999808</EPOCH><MEAN_MOTION>15.31750323</MEAN_MOTION><ECCENTRICITY>.00051669</ECCENTRICITY><INCLINATION>51.8787</INCLINATION><RA_OF_ASC_NODE>59.8999</RA_OF_ASC_NODE><ARG_OF_PERICENTER>14.9293</ARG_OF_PERICENTER><MEAN_ANOMALY>174.2052</MEAN_ANOMALY></meanElements><tleParameters><EPHEMERIS_TYPE>0</EPHEMERIS_TYPE><CLASSIFICATION_TYPE>U</CLASSIFICATION_TYPE><NORAD_CAT_ID>65142</NORAD_CAT_ID><ELEMENT_SET_NO>999</ELEMENT_SET_NO><REV_AT_EPOCH>522</REV_AT_EPOCH><BSTAR>-.33912855E-1</BSTAR><MEAN_MOTION_DOT>-.976013E-2</MEAN_MOTION_DOT><MEAN_MOTION_DDOT>0</MEAN_MOTION_DDOT></tleParameters></data></segment></body></omm>
<omm id="CCSDS_OMM_VERS" version="2.0">
<header><CREATION_DATE/><ORIGINATOR/></header><body><segment><metadata><OBJECT_NAME>KUIPER-00105</OBJECT_NAME><OBJECT_ID>2025-171M</OBJECT_ID><CENTER_NAME>EARTH</CENTER_NAME><REF_FRAME>TEME</REF_FRAME><TIME_SYSTEM>UTC</TIME_SYSTEM><MEAN_ELEMENT_THEORY>SGP4</MEAN_ELEMENT_THEORY></metadata><data><meanElements><EPOCH>2025-10-22T00:00:02.999808</EPOCH><MEAN_MOTION>15.12002882</MEAN_MOTION><ECCENTRICITY>.00107533</ECCENTRICITY><INCLINATION>51.8835</INCLINATION><RA_OF_ASC_NODE>61.9066</RA_OF_ASC_NODE><ARG_OF_PERICENTER>356.2178</ARG_OF_PERICENTER><MEAN_ANOMALY>204.4054</MEAN_ANOMALY></meanElements><tleParameters><EPHEMERIS_TYPE>0</EPHEMERIS_TYPE><CLASSIFICATION_TYPE>U</CLASSIFICATION_TYPE><NORAD_CAT_ID>65143</NORAD_CAT_ID><ELEMENT_SET_NO>999</ELEMENT_SET_NO><REV_AT_EPOCH>547</REV_AT_EPOCH><BSTAR>-.58911618E-1</BSTAR><MEAN_MOTION_DOT>-.947699E-2</MEAN_MOTION_DOT><MEAN_MOTION_DDOT>0</MEAN_MOTION_DDOT></tleParameters></data></segment></body></omm>
<omm id="CCSDS_OMM_VERS" version="2.0">
<header><CREATION_DATE/><ORIGINATOR/></header><body><segment><metadata><OBJECT_NAME>KUIPER-00106</OBJECT_NAME><OBJECT_ID>2025-171N</OBJECT_ID><CENTER_NAME>EARTH</CENTER_NAME><REF_FRAME>TEME</REF_FRAME><TIME_SYSTEM>UTC</TIME_SYSTEM><MEAN_ELEMENT_THEORY>SGP4</MEAN_ELEMENT_THEORY></metadata><data><meanElements><EPOCH>2025-10-22T00:00:02.999808</EPOCH><MEAN_MOTION>14.99475237</MEAN_MOTION><ECCENTRICITY>.00094647</ECCENTRICITY><INCLINATION>51.8930</INCLINATION><RA_OF_ASC_NODE>64.6487</RA_OF_ASC_NODE><ARG_OF_PERICENTER>356.3122</ARG_OF_PERICENTER><MEAN_ANOMALY>259.8815</MEAN_ANOMALY></meanElements><tleParameters><EPHEMERIS_TYPE>0</EPHEMERIS_TYPE><CLASSIFICATION_TYPE>U</CLASSIFICATION_TYPE><NORAD_CAT_ID>65144</NORAD_CAT_ID><ELEMENT_SET_NO>999</ELEMENT_SET_NO><REV_AT_EPOCH>497</REV_AT_EPOCH><BSTAR>-.11895587E+0</BSTAR><MEAN_MOTION_DOT>-.1357557E-1</MEAN_MOTION_DOT><MEAN_MOTION_DDOT>0</MEAN_MOTION_DDOT></tleParameters></data></segment></body></omm>
<omm id="CCSDS_OMM_VERS" version="2.0">
<header><CREATION_DATE/><ORIGINATOR/></header><body><segment><metadata><OBJECT_NAME>KUIPER-00107</OBJECT_NAME><OBJECT_ID>2025-171P</OBJECT_ID><CENTER_NAME>EARTH</CENTER_NAME><REF_FRAME>TEME</REF_FRAME><TIME_SYSTEM>UTC</TIME_SYSTEM><MEAN_ELEMENT_THEORY>SGP4</MEAN_ELEMENT_THEORY></metadata><data><meanElements><EPOCH>2025-10-21T14:51:06.839424</EPOCH><MEAN_MOTION>15.37723264</MEAN_MOTION><ECCENTRICITY>.0005119</ECCENTRICITY><INCLINATION>51.8761</INCLINATION><RA_OF_ASC_NODE>61.4594</RA_OF_ASC_NODE><ARG_OF_PERICENTER>21.6917</ARG_OF_PERICENTER><MEAN_ANOMALY>338.4286</MEAN_ANOMALY></meanElements><tleParameters><EPHEMERIS_TYPE>0</EPHEMERIS_TYPE><CLASSIFICATION_TYPE>U</CLASSIFICATION_TYPE><NORAD_CAT_ID>65145</NORAD_CAT_ID><ELEMENT_SET_NO>999</ELEMENT_SET_NO><REV_AT_EPOCH>1218</REV_AT_EPOCH><BSTAR>.15699E-2</BSTAR><MEAN_MOTION_DOT>.59165E-3</MEAN_MOTION_DOT><MEAN_MOTION_DDOT>0</MEAN_MOTION_DDOT></tleParameters></data></segment></body></omm>
<omm id="CCSDS_OMM_VERS" version="2.0">
<header><CREATION_DATE/><ORIGINATOR/></header><body><segment><metadata><OBJECT_NAME>KUIPER-00108</OBJECT_NAME><OBJECT_ID>2025-171Q</OBJECT_ID><CENTER_NAME>EARTH</CENTER_NAME><REF_FRAME>TEME</REF_FRAME><TIME_SYSTEM>UTC</TIME_SYSTEM><MEAN_ELEMENT_THEORY>SGP4</MEAN_ELEMENT_THEORY></metadata><data><meanElements><EPOCH>2025-10-22T00:00:02.999808</EPOCH><MEAN_MOTION>15.26783513</MEAN_MOTION><ECCENTRICITY>.00062919</ECCENTRICITY><INCLINATION>51.8825</INCLINATION><RA_OF_ASC_NODE>60.2918</RA_OF_ASC_NODE><ARG_OF_PERICENTER>37.1009</ARG_OF_PERICENTER><MEAN_ANOMALY>304.6313</MEAN_ANOMALY></meanElements><tleParameters><EPHEMERIS_TYPE>0</EPHEMERIS_TYPE><CLASSIFICATION_TYPE>U</CLASSIFICATION_TYPE><NORAD_CAT_ID>65146</NORAD_CAT_ID><ELEMENT_SET_NO>999</ELEMENT_SET_NO><REV_AT_EPOCH>381</REV_AT_EPOCH><BSTAR>-.54313009E-1</BSTAR><MEAN_MOTION_DOT>-.1324134E-1</MEAN_MOTION_DOT><MEAN_MOTION_DDOT>0</MEAN_MOTION_DDOT></tleParameters></data></segment></body></omm>
<omm id="CCSDS_OMM_VERS" version="2.0">
<header><CREATION_DATE/><ORIGINATOR/></header><body><segment><metadata><OBJECT_NAME>KUIPER-00109</OBJECT_NAME><OBJECT_ID>2025-171R</OBJECT_ID><CENTER_NAME>EARTH</CENTER_NAME><REF_FRAME>TEME</REF_FRAME><TIME_SYSTEM>UTC</TIME_SYSTEM><MEAN_ELEMENT_THEORY>SGP4</MEAN_ELEMENT_THEORY></metadata><data><meanElements><EPOCH>2025-10-22T00:00:02.999808</EPOCH><MEAN_MOTION>15.35578014</MEAN_MOTION><ECCENTRICITY>.00076357</ECCENTRICITY><INCLINATION>51.8772</INCLINATION><RA_OF_ASC_NODE>59.5261</RA_OF_ASC_NODE><ARG_OF_PERICENTER>9.4796</ARG_OF_PERICENTER><MEAN_ANOMALY>348.9084</MEAN_ANOMALY></meanElements><tleParameters><EPHEMERIS_TYPE>0</EPHEMERIS_TYPE><CLASSIFICATION_TYPE>U</CLASSIFICATION_TYPE><NORAD_CAT_ID>65147</NORAD_CAT_ID><ELEMENT_SET_NO>999</ELEMENT_SET_NO><REV_AT_EPOCH>518</REV_AT_EPOCH><BSTAR>-.23569277E-1</BSTAR><MEAN_MOTION_DOT>-.762102E-2</MEAN_MOTION_DOT><MEAN_MOTION_DDOT>0</MEAN_MOTION_DDOT></tleParameters></data></segment></body></omm>
<omm id="CCSDS_OMM_VERS" version="2.0">
<header><CREATION_DATE/><ORIGINATOR/></header><body><segment><metadata><OBJECT_NAME>KUIPER-00110</OBJECT_NAME><OBJECT_ID>2025-171S</OBJECT_ID><CENTER_NAME>EARTH</CENTER_NAME><REF_FRAME>TEME</REF_FRAME><TIME_SYSTEM>UTC</TIME_SYSTEM><MEAN_ELEMENT_THEORY>SGP4</MEAN_ELEMENT_THEORY></metadata><data><meanElements><EPOCH>2025-10-22T00:00:02.999808</EPOCH><MEAN_MOTION>15.05597296</MEAN_MOTION><ECCENTRICITY>.00094638</ECCENTRICITY><INCLINATION>51.8879</INCLINATION><RA_OF_ASC_NODE>63.1882</RA_OF_ASC_NODE><ARG_OF_PERICENTER>5.8409</ARG_OF_PERICENTER><MEAN_ANOMALY>270.0923</MEAN_ANOMALY></meanElements><tleParameters><EPHEMERIS_TYPE>0</EPHEMERIS_TYPE><CLASSIFICATION_TYPE>U</CLASSIFICATION_TYPE><NORAD_CAT_ID>65148</NORAD_CAT_ID><ELEMENT_SET_NO>999</ELEMENT_SET_NO><REV_AT_EPOCH>539</REV_AT_EPOCH><BSTAR>-.12526359E+0</BSTAR><MEAN_MOTION_DOT>-.1676224E-1</MEAN_MOTION_DOT><MEAN_MOTION_DDOT>0</MEAN_MOTION_DDOT></tleParameters></data></segment></body></omm>
<omm id="CCSDS_OMM_VERS" version="2.0">
<header><CREATION_DATE/><ORIGINATOR/></header><body><segment><metadata><OBJECT_NAME>KUIPER-00111</OBJECT_NAME><OBJECT_ID>2025-171T</OBJECT_ID><CENTER_NAME>EARTH</CENTER_NAME><REF_FRAME>TEME</REF_FRAME><TIME_SYSTEM>UTC</TIME_SYSTEM><MEAN_ELEMENT_THEORY>SGP4</MEAN_ELEMENT_THEORY></metadata><data><meanElements><EPOCH>2025-10-22T00:00:02.999808</EPOCH><MEAN_MOTION>14.87882558</MEAN_MOTION><ECCENTRICITY>.00082757</ECCENTRICITY><INCLINATION>51.8973</INCLINATION><RA_OF_ASC_NODE>66.5538</RA_OF_ASC_NODE><ARG_OF_PERICENTER>25.2577</ARG_OF_PERICENTER><MEAN_ANOMALY>114.7212</MEAN_ANOMALY></meanElements><tleParameters><EPHEMERIS_TYPE>0</EPHEMERIS_TYPE><CLASSIFICATION_TYPE>U</CLASSIFICATION_TYPE><NORAD_CAT_ID>65149</NORAD_CAT_ID><ELEMENT_SET_NO>999</ELEMENT_SET_NO><REV_AT_EPOCH>575</REV_AT_EPOCH><BSTAR>-.62201217E-2</BSTAR><MEAN_MOTION_DOT>-.57292E-3</MEAN_MOTION_DOT><MEAN_MOTION_DDOT>0</MEAN_MOTION_DDOT></tleParameters></data></segment></body></omm>

</ndm>
